$$SOE
2460721.500000000, A.D. 2025-Feb-15 00:00:00.0000, -1.008393645940903E+08, 3.443378088522805E+08, 4.993158184379165E+07,
2460728.500000000, A.D. 2025-Feb-22 00:00:00.0000, -1.121814840596800E+08, 3.435345482673734E+08, 4.925639286283866E+07,
2460735.500000000, A.D. 2025-Mar-01 00:00:00.0000, -1.234113091839670E+08, 3.423876701286327E+08, 4.853189499755949E+07,
2460742.500000000, A.D. 2025-Mar-08 00:00:00.0000, -1.345200483419141E+08, 3.409051108073987E+08, 4.775977658993421E+07,
2460749.500000000, A.D. 2025-Mar-15 00:00:00.0000, -1.454993693860952E+08, 3.390948281485072E+08, 4.694170695149311E+07,
2460756.500000000, A.D. 2025-Mar-22 00:00:00.0000, -1.563413808002611E+08, 3.369647858931432E+08, 4.607933506760150E+07,
2460763.500000000, A.D. 2025-Mar-29 00:00:00.0000, -1.670386119788229E+08, 3.345229377435377E+08, 4.517428827208665E+07,
2460770.500000000, A.D. 2025-Apr-05 00:00:00.0000, -1.775839923777956E+08, 3.317772140477941E+08, 4.422817108999754E+07,
2460777.500000000, A.D. 2025-Apr-12 00:00:00.0000, -1.879708315148089E+08, 3.287355110638224E+08, 4.324256440723406E+07,
2460784.500000000, A.D. 2025-Apr-19 00:00:00.0000, -1.981928000413365E+08, 3.254056817805464E+08, 4.221902488722493E+07,
2460791.500000000, A.D. 2025-Apr-26 00:00:00.0000, -2.082439116419658E+08, 3.217955279613872E+08, 4.115908457050249E+07,
2460798.500000000, A.D. 2025-May-03 00:00:00.0000, -2.181185056646028E+08, 3.179127933077538E+08, 4.006425062792464E+07,
2460805.500000000, A.D. 2025-May-10 00:00:00.0000, -2.278112304623738E+08, 3.137651576393790E+08, 3.893600524717842E+07,
2460812.500000000, A.D. 2025-May-17 00:00:00.0000, -2.373170274128444E+08, 3.093602319473863E+08, 3.777580562913695E+07,
2460819.500000000, A.D. 2025-May-24 00:00:00.0000, -2.466311154371691E+08, 3.047055541706334E+08, 3.658508405856964E+07,
2460826.500000000, A.D. 2025-May-31 00:00:00.0000, -2.557489755933600E+08, 2.998085859188011E+08, 3.536524802270111E+07,
2460833.500000000, A.D. 2025-Jun-07 00:00:00.0000, -2.646663361338548E+08, 2.946767112670864E+08, 3.411768050071602E+07,
2460840.500000000, A.D. 2025-Jun-14 00:00:00.0000, -2.733791603791724E+08, 2.893172368849882E+08, 3.284374057582571E+07,
2460847.500000000, A.D. 2025-Jun-21 00:00:00.0000, -2.818836361716124E+08, 2.837373901634135E+08, 3.154476398102649E+07,
2460854.500000000, A.D. 2025-Jun-28 00:00:00.0000, -2.901761637583003E+08, 2.779443170400460E+08, 3.022206342676240E+07,
2460861.500000000, A.D. 2025-Jul-05 00:00:00.0000, -2.982533436032476E+08, 2.719450816225798E+08, 2.887692901822917E+07,
2460868.500000000, A.D. 2025-Jul-12 00:00:00.0000, -3.061119653007883E+08, 2.657466667576980E+08, 2.751062879903379E+07,
2460875.500000000, A.D. 2025-Jul-19 00:00:00.0000, -3.137489973783597E+08, 2.593559749267960E+08, 2.612440935065685E+07,
2460882.500000000, A.D. 2025-Jul-26 00:00:00.0000, -3.211615777561345E+08, 2.527798293706693E+08, 2.471949641838759E+07,
2460889.500000000, A.D. 2025-Aug-02 00:00:00.0000, -3.283470047762240E+08, 2.460249754276940E+08, 2.329709555476087E+07,
2460896.500000000, A.D. 2025-Aug-09 00:00:00.0000, -3.353027287565384E+08, 2.390980820377488E+08, 2.185839277304201E+07,
2460903.500000000, A.D. 2025-Aug-16 00:00:00.0000, -3.420263439711770E+08, 2.320057433190297E+08, 2.040455519497861E+07,
2460910.500000000, A.D. 2025-Aug-23 00:00:00.0000, -3.485155807438954E+08, 2.247544802075945E+08, 1.893673166427791E+07,
2460917.500000000, A.D. 2025-Aug-30 00:00:00.0000, -3.547682973055161E+08, 2.173507428494424E+08, 1.745605335138997E+07,
2460924.500000000, A.D. 2025-Sep-06 00:00:00.0000, -3.607824728151114E+08, 2.098009147236389E+08, 1.596363455919349E+07,
2460931.500000000, A.D. 2025-Sep-13 00:00:00.0000, -3.665562031996834E+08, 2.021113159960815E+08, 1.446057367797597E+07,
2460938.500000000, A.D. 2025-Sep-20 00:00:00.0000, -3.720876965205209E+08, 1.942882044448617E+08, 1.294795385346296E+07,
2460945.500000000, A.D. 2025-Sep-27 00:00:00.0000, -3.773752667876088E+08, 1.863377770522382E+08, 1.142684352376909E+07,
2460952.500000000, A.D. 2025-Oct-04 00:00:00.0000, -3.824173282242188E+08, 1.782661727880102E+08, 9.898297053032577E+06,
2460959.500000000, A.D. 2025-Oct-11 00:00:00.0000, -3.872123903417540E+08, 1.700794756320848E+08, 8.363355417693295E+06,
2460966.500000000, A.D. 2025-Oct-18 00:00:00.0000, -3.917590535246252E+08, 1.617837175537305E+08, 6.823046895930588E+06,
2460973.500000000, A.D. 2025-Oct-25 00:00:00.0000, -3.960560049681794E+08, 1.533848814493485E+08, 5.278387747585803E+06,
2460980.500000000, A.D. 2025-Nov-01 00:00:00.0000, -4.001020149144542E+08, 1.448889040442459E+08, 3.730382881700516E+06,
2460987.500000000, A.D. 2025-Nov-08 00:00:00.0000, -4.038959331388964E+08, 1.363016787174132E+08, 2.180026505560517E+06,
2460994.500000000, A.D. 2025-Nov-15 00:00:00.0000, -4.074366855314516E+08, 1.276290581833935E+08, 6.283027364860624E+05,
2461001.500000000, A.D. 2025-Nov-22 00:00:00.0000, -4.107232703622401E+08, 1.188768572469876E+08, -9.238138431131691E+05,
2461008.500000000, A.D. 2025-Nov-29 00:00:00.0000, -4.137547543775834E+08, 1.100508567633139E+08, -2.475357581198856E+06,
2461015.500000000, A.D. 2025-Dec-06 00:00:00.0000, -4.165302709965898E+08, 1.011568086651492E+08, -4.025370904928796E+06,
2461022.500000000, A.D. 2025-Dec-13 00:00:00.0000, -4.190490201685039E+08, 9.220043868642905E+07, -5.572903538656503E+06,
2461029.500000000, A.D. 2025-Dec-20 00:00:00.0000, -4.213102663888007E+08, 8.318744780510065E+07, -7.117012028020948E+06,
2461036.500000000, A.D. 2025-Dec-27 00:00:00.0000, -4.233133359373781E+08, 7.412351499400866E+07, -8.656759259613812E+06,
2461043.500000000, A.D. 2026-Jan-03 00:00:00.0000, -4.250576147920826E+08, 6.501430066084119E+07, -1.019121389270288E+07,
2461050.500000000, A.D. 2026-Jan-10 00:00:00.0000, -4.265425471045398E+08, 5.586545009730623E+07, -1.171944976869063E+07,
2461057.500000000, A.D. 2026-Jan-17 00:00:00.0000, -4.277676340020190E+08, 4.668259684631171E+07, -1.324054532705537E+07,
2461064.500000000, A.D. 2026-Jan-24 00:00:00.0000, -4.287324326336405E+08, 3.747136601006657E+07, -1.475358303287816E+07,
2461071.500000000, A.D. 2026-Jan-31 00:00:00.0000, -4.294365554345390E+08, 2.823737749190049E+07, -1.625764881852729E+07,
2461078.500000000, A.D. 2026-Feb-07 00:00:00.0000, -4.298796695444887E+08, 1.898624911485150E+07, -1.775183154967275E+07,
2461085.500000000, A.D. 2026-Feb-14 00:00:00.0000, -4.300614961267346E+08, 9.723599602361765E+06, -1.923522253996787E+07,
2461092.500000000, A.D. 2026-Feb-21 00:00:00.0000, -4.299818091987386E+08, 4.550519988715742E+05, -2.070691510266205E+07,
2461099.500000000, A.D. 2026-Feb-28 00:00:00.0000, -4.296404350594172E+08, -8.813761315822290E+06, -2.216600394529998E+07,
2461106.500000000, A.D. 2026-Mar-07 00:00:00.0000, -4.290372543730722E+08, -1.807719396861370E+07, -2.361158437825368E+07,
2461113.500000000, A.D. 2026-Mar-14 00:00:00.0000, -4.281722041379679E+08, -2.732958362331265E+07, -2.504275178269229E+07,
2461120.500000000, A.D. 2026-Mar-21 00:00:00.0000, -4.270452777579621E+08, -3.656524979863390E+07, -2.645860126450658E+07,
2461127.500000000, A.D. 2026-Mar-28 00:00:00.0000, -4.256565252257099E+08, -4.577849044482832E+07, -2.785822722526034E+07,
2461134.500000000, A.D. 2026-Apr-04 00:00:00.0000, -4.240060540228723E+08, -5.496357824645071E+07, -2.924072287354116E+07,
2461141.500000000, A.D. 2026-Apr-11 00:00:00.0000, -4.220940304679934E+08, -6.411475701305291E+07, -3.060517973138336E+07,
2461148.500000000, A.D. 2026-Apr-18 00:00:00.0000, -4.199206813582140E+08, -7.322623816601460E+07, -3.195068715103408E+07,
2461155.500000000, A.D. 2026-Apr-25 00:00:00.0000, -4.174862958651096E+08, -8.229219730865495E+07, -3.327633184524330E+07,
2461162.500000000, A.D. 2026-May-02 00:00:00.0000, -4.147912276612101E+08, -9.130677091138077E+07, -3.458119743672977E+07,
2461169.500000000, A.D. 2026-May-09 00:00:00.0000, -4.118358971609493E+08, -1.002640531802197E+08, -3.586436404433045E+07,
2461176.500000000, A.D. 2026-May-16 00:00:00.0000, -4.086207935071459E+08, -1.091580929724638E+08, -3.712490793003611E+07,
2461183.500000000, A.D. 2026-May-23 00:00:00.0000, -4.051464762604812E+08, -1.179828897393447E+08, -3.836190112905306E+07,
2461190.500000000, A.D. 2026-May-30 00:00:00.0000, -4.014135788801227E+08, -1.267323881795546E+08, -3.957441084729379E+07,
2461197.500000000, A.D. 2026-Jun-06 00:00:00.0000, -3.974228143249353E+08, -1.354004748821765E+08, -4.076149886650104E+07,
2461204.500000000, A.D. 2026-Jun-13 00:00:00.0000, -3.931749791241112E+08, -1.439809767646482E+08, -4.192222127914815E+07,
2461211.500000000, A.D. 2026-Jun-20 00:00:00.0000, -3.886709564316812E+08, -1.524676583825254E+08, -4.305562826965924E+07,
2461218.500000000, A.D. 2026-Jun-27 00:00:00.0000, -3.839117197744654E+08, -1.608542184546566E+08, -4.416076381511620E+07,
2461225.500000000, A.D. 2026-Jul-04 00:00:00.0000, -3.788983375050424E+08, -1.691342863850986E+08, -4.523666537011528E+07,
2461232.500000000, A.D. 2026-Jul-11 00:00:00.0000, -3.736319777188104E+08, -1.773014189226853E+08, -4.628236357156124E+07,
2461239.500000000, A.D. 2026-Jul-18 00:00:00.0000, -3.681139135572374E+08, -1.853490969441194E+08, -4.729688197202580E+07,
2461246.500000000, A.D. 2026-Jul-25 00:00:00.0000, -3.623455288903638E+08, -1.932707223720435E+08, -4.827923680677372E+07,
2461253.500000000, A.D. 2026-Aug-01 00:00:00.0000, -3.563283243511295E+08, -2.010596152918577E+08, -4.922843680678485E+07,
2461260.500000000, A.D. 2026-Aug-08 00:00:00.0000, -3.500639235293691E+08, -2.087090113191651E+08, -5.014348308481637E+07,
2461267.500000000, A.D. 2026-Aug-15 00:00:00.0000, -3.435540789334862E+08, -2.162120587838070E+08, -5.102336910009247E+07,
2461274.500000000, A.D. 2026-Aug-22 00:00:00.0000, -3.368006785030183E+08, -2.235618145268638E+08, -5.186708053611068E+07,
2461281.500000000, A.D. 2026-Aug-29 00:00:00.0000, -3.298057549827281E+08, -2.307512397042108E+08, -5.267359499810037E+07,
$$EOE